FLOCK 4X-19             
1 51046U 22002BQ  22336.64413669  .00009717  00000+0  47373-3 0  9997
2 51046  97.4703  41.5099 0007977 199.2083 160.8852 15.18500948 48911
FLOCK 4X-9              
1 51047U 22002BR  22337.16826140  .00010074  00000+0  48985-3 0  9996
2 51047  97.4710  42.0644 0008490 200.1131 159.9769 15.18580748 48999
FLOCK 4X-35             
1 51048U 22002BS  22336.44081822  .00012555  00000+0  61161-3 0  9994
2 51048  97.4643  41.0720 0008109 193.0680 167.0345 15.18461757 48881
FLOCK 4X-11             
1 51049U 22002BT  22336.98227773  .00005108  00000+0  25098-3 0  9996
2 51049  97.4654  41.6187 0007775 196.0209 164.0780 15.18471143 48964
FLOCK 4X-40             
1 51052U 22002BW  22337.44712827  .00020126  00000+0  97497-3 0  9990
2 51052  97.4656  42.0642 0007418 192.9490 167.1555 15.18553909 49036
FLOCK 4X-24             
1 51056U 22002CA  22336.98855314  .00008370  00000+0  40879-3 0  9990
2 51056  97.4654  41.6426 0007550 189.4595 170.6498 15.18486192 48962
FLOCK 4X-4              
1 51064U 22002CJ  22337.42499808  .00005615  00000+0  27521-3 0  9999
2 51064  97.4663  42.1318 0008673 186.5169 173.5953 15.18503671 49038
FLOCK 4X-7              
1 51065U 22002CK  22337.43299965  .00005696  00000+0  27854-3 0  9991
2 51065  97.4691  42.2585 0008223 195.8629 164.2349 15.18586396 49033
FLOCK 4X-14             
1 51066U 22002CL  22336.44030499  .00007777  00000+0  37998-3 0  9999
2 51066  97.4724  41.4186 0008741 202.0262 158.0598 15.18489122 48886
